443P/PANSTARRS-Christensen,e,19.8880,108.9335,145.0629,4.124556,0.1176626,0.28287286,123.7517,08/26.0/2025,2000,g 13.5,4.0
# From MPEC 2023-VM5
444P/WISE-PANSTARRS,e,22.7155,88.1899,172.8420,3.475707,0.1521036,0.55637320,175.5802,08/26.0/2025,2000,g 17.0,4.0
# From MPEC 2024-BE0
445P/Lemmon-PANSTARRS,e,1.0890,126.5917,213.1815,4.045414,0.1211322,0.41425672,133.9558,08/26.0/2025,2000,g 15.0,4.0
# From MPEC 2024-NE4
446P/McNaught,e,16.6336,336.3254,344.6165,4.559078,0.1012485,0.64681640,120.0260,08/26.0/2025,2000,g 16.5,4.0
# From MPEC 2022-YB4
447P/Sheppard-Tholen,e,7.4414,302.6375,97.4681,5.624872,0.0738814,0.17716025,81.7293,08/26.0/2025,2000,g 12.0,4.0
# From MPEC 2024-PC5
448P/PANSTARRS,e,12.1443,161.7526,218.8045,3.636585,0.1421227,0.41807888,154.1948,08/26.0/2025,2000,g 16.0,4.0
# From MPEC 2024-DC6
449P/Leonard,e,15.4697,242.5212,176.7719,3.599720,0.1443115,0.47975694,250.2996,08/26.0/2025,2000,g 16.0,4.0
# From MPC184420
450P/LONEOS,e,10.7396,124.1324,24.2900,7.919486,0.0442241,0.31415702,336.5132,08/26.0/2025,2000,g  6.5,4.0
# From MPEC 2023-HD1
451P/Christensen,e,26.4860,300.8653,186.8014,6.350722,0.0615842,0.55926632,61.7056,08/26.0/2025,2000,g 15.5,4.0
# From MPEC 2024-NE4
452P/Sheppard-Jewitt,e,6.4221,123.6635,37.1034,7.311857,0.0498497,0.42863215,42.5187,08/26.0/2025,2000,g  9.0,4.0
# From MPEC 2023-RF3
453P/WISE-Lemmon,e,27.0580,42.8906,70.9059,5.467844,0.0770868,0.58316859,69.8861,08/26.0/2025,2000,g 14.0,4.0
# From MPEC 2023-CD7
454P/PANSTARRS,e,19.8086,54.5863,20.2058,4.211726,0.1140286,0.36139096,128.4313,08/26.0/2025,2000,g 14.0,4.0
# From MPEC 2022-Y14
455P/PANSTARRS,e,14.1344,146.1786,237.5383,3.153519,0.1759992,0.30437939,160.7111,08/26.0/2025,2000,g 17.0,4.0
# From MPC182892
456P/PANSTARRS,e,16.9649,243.1406,232.9867,3.169109,0.1747022,0.11577035,23.2661,08/26.0/2025,2000,g 13.5,4.0
# From MPEC 2025-A40
457P/Lemmon-PANSTARRS,e,5.2258,175.9636,104.3078,2.645081,0.2291108,0.11835396,84.9945,08/26.0/2025,2000,g 15.5,4.0
# From MPEC 2023-HD1
458P/Jahn,e,13.6219,1.5564,104.9469,3.859346,0.1299971,0.31726837,133.9153,08/26.0/2025,2000,g 17.3,4.0
# From MPEC 2024-N80
459P/Catalina,e,7.1736,256.9875,205.2288,3.240436,0.1689659,0.57787618,154.8172,08/26.0/2025,2000,g 15.5,4.0
# From MPEC 2023-G14
460P/PANSTARRS,e,18.9002,180.5171,351.9327,3.027372,0.1871136,0.66424768,286.7219,08/26.0/2025,2000,g 21.0,4.0
# From MPEC 2024-GJ3
461P/WISE,e,18.3977,194.3758,174.8301,3.144474,0.1767592,0.56952217,251.2800,08/26.0/2025,2000,g 18.5,4.0
# From MPEC 2024-BE0
462P/LONEOS-PANSTARRS,e,7.0502,322.6501,4.1967,4.860652,0.0919734,0.57857633,103.1020,08/26.0/2025,2000,g 17.0,4.0
# From MPEC 2024-GJ3
463P/NEOWISE,e,29.2966,283.2188,216.3404,2.974074,0.1921660,0.82593136,169.1250,08/26.0/2025,2000,g 18.0,4.0
# From MPEC 2024-Q20
464P/PANSTARRS,e,21.6738,309.5788,267.5098,4.683599,0.0972377,0.28061762,88.5562,08/26.0/2025,2000,g 10.5,4.0
# From MPEC 2024-NE4
465P/Hill,e,25.8617,217.9468,140.9776,6.006633,0.0669511,0.61308953,56.2492,08/26.0/2025,2000,g 12.5,4.0
# From MPEC 2024-JU4
466P/PANSTARRS,e,13.3983,117.2297,198.1489,4.019947,0.1222851,0.48362695,102.1513,08/26.0/2025,2000,g 14.0,4.0
# From MPEC 2025-A40
467P/LINEAR-Grauer,e,2.4793,43.2624,267.4016,5.825573,0.0700965,0.05439537,70.4109,08/26.0/2025,2000,g  9.0,4.0
# From MPEC 2024-O39
468P/SidingSpring,e,50.4530,356.1272,322.5726,7.116490,0.0519165,0.44488529,33.4320,08/26.0/2025,2000,g 11.5,4.0
# From MPEC 2025-A40
469P/PANSTARRS,e,20.1718,178.9670,43.4925,4.342834,0.1089041,0.30805464,348.6310,08/26.0/2025,2000,g 13.5,4.0
# From MPC182892
470P/PANSTARRS,e,8.8440,246.1653,151.6735,4.463013,0.1045350,0.38932638,64.6394,08/26.0/2025,2000,g 15.5,4.0
# From MPC182892
471P/LINEAR-Lemmon,e,4.7970,283.3124,94.7668,5.691684,0.0725843,0.62765488,44.6557,08/26.0/2025,2000,g 12.0,4.0
# From MPC185666
472P/NEAT-LINEAR,e,10.8248,205.8299,218.8257,7.773240,0.0454780,0.56427841,18.5571,08/26.0/2025,2000,g 10.5,4.0
# From MPEC 2024-MB8
473P/NEAT,e,56.8931,22.1906,42.9406,7.973185,0.0437780,0.82359540,23.9363,08/26.0/2025,2000,g 13.5,4.0
# From MPEC 2024-B74
474P/Hogan,e,1.0969,26.7511,11.2655,3.130620,0.1779338,0.18801035,137.4300,08/26.0/2025,2000,g 15.5,4.0
# From MPC185666
475P/Spacewatch-LINEAR,e,14.5238,147.3573,40.4123,7.318588,0.0497809,0.44287739,22.4174,08/26.0/2025,2000,g 11.0,4.0
# From MPC184421
476P/PANSTARRS,e,19.0053,57.0488,46.7357,4.774699,0.0944681,0.34582727,29.6181,08/26.0/2025,2000,g 12.5,4.0
# From MPEC 2024-GJ3
477P/PANSTARRS,e,8.9138,59.1430,305.8695,3.001814,0.1895084,0.41755327,115.3151,08/26.0/2025,2000,g 14.5,4.0
# From MPEC 2024-L77
478P/ATLAS,e,12.5248,127.2612,13.2509,3.648121,0.1414491,0.34377847,68.0091,08/26.0/2025,2000,g 13.5,4.0
# From MPEC 2024-PC5
479P/Elenin,e,15.3999,295.8330,263.5006,5.622694,0.0739243,0.77892649,35.3158,08/26.0/2025,2000,g 15.0,4.0
# From MPC182893
480P/PANSTARRS,e,13.7164,229.9823,214.4340,4.611164,0.0995379,0.24630181,85.1211,08/26.0/2025,2000,g 12.0,4.0
# From MPEC 2025-A40
481P/Lemmon-PANSTARRS,e,6.0827,93.5499,356.8165,4.682051,0.0972859,0.34345810,75.7521,08/26.0/2025,2000,g 13.5,4.0
# From MPEC 2024-JU4
482P/PANSTARRS,e,24.4879,126.0749,339.7323,3.757005,0.1353447,0.49237221,110.4139,08/26.0/2025,2000,g 13.5,4.0
# From MPEC 2025-PB3
483P-A/PANSTARRS,e,14.1791,199.1586,49.3204,3.195388,0.1725515,0.22200200,220.6771,08/26.0/2025,2000,g 13.5,4.0
# From MPC185666
483P-B/PANSTARRS,e,14.1798,199.1578,49.3111,3.195310,0.1725578,0.22194379,220.7127,08/26.0/2025,2000,g 17.0,4.0
# From MPEC 2024-DD5
484P/Spacewatch,e,14.4742,265.3777,240.8073,3.756699,0.1353613,0.43301015,234.4427,08/26.0/2025,2000,g 16.0,4.0
# From MPEC 2024-JU4
485P/Sheppard-Tholen,e,10.0161,261.6440,196.1141,6.851619,0.0549559,0.41719029,40.2116,08/26.0/2025,2000,g 13.0,4.0
# From MPEC 2025-PD8
486P/Leonard,e,2.2096,219.0229,93.9445,3.627481,0.1426581,0.36347815,20.5653,08/26.0/2025,2000,g 14.5,4.0
# From MPC185666
487P/SidingSpring,e,39.3661,49.2013,0.8409,5.161472,0.0840512,0.64841146,26.0072,08/26.0/2025,2000,g 13.5,4.0
# From MPEC 2024-UA9
488P/NEAT-PANSTARRS,e,11.3875,323.8467,1.8850,3.744604,0.1360176,0.55134818,63.0129,08/26.0/2025,2000,g 16.5,4.0
# From MPEC 2024-Q14
489P/Denning,e,4.0260,20.6059,109.4198,4.425510,0.1058666,0.64720495,349.3797,08/26.0/2025,2000,g 15.5,4.0
# From MPEC 2024-YC7
490P/ATLAS,e,12.2666,307.5956,332.5600,3.030275,0.1868448,0.64710553,62.0025,08/26.0/2025,2000,g 21.0,4.0
# From MPEC 2025-PD8
491P/Spacewatch-PANSTARRS,e,9.3666,311.6836,298.8668,5.013043,0.0878116,0.25867686,31.0930,08/26.0/2025,2000,g  9.5,4.0
# From MPC185666
492P/LINEAR,e,11.4012,11.3047,40.9819,5.759122,0.0713132,0.69058150,28.6371,08/26.0/2025,2000,g 15.0,4.0
# From MPEC 2025-PD8
493P/LONEOS,e,24.1103,1.1001,83.2084,7.170566,0.0513303,0.46684556,352.7580,08/26.0/2025,2000,g 12.0,2.0
# From MPEC 2024-RQ6
494P/PANSTARRS,e,7.7899,245.0434,48.8830,3.794449,0.1333463,0.35677780,60.2749,08/26.0/2025,2000,g 16.0,4.0
# From MPEC 2025-A40
495P/Christensen,e,26.3555,291.6156,141.3324,4.757978,0.0949665,0.27281808,354.5552,08/26.0/2025,2000,g 11.5,4.0
# From MPC185666
496P/Hill,e,14.8144,63.5859,42.2461,6.098756,0.0654398,0.73419988,11.0413,08/26.0/2025,2000,g 14.0,4.0
# From MPC184421
497P/Spacewatch-PANSTARRS,e,10.4367,40.3661,32.3960,5.613276,0.0741104,0.63035547,14.2083,08/26.0/2025,2000,g 17.5,4.0
# From MPC184421
498P/LINEAR,e,14.4827,279.2301,179.0825,4.592723,0.1001380,0.57228577,25.0434,08/26.0/2025,2000,g 14.7,4.0
# From MPC185667
499P/Catalina,e,24.5825,139.3071,2.5602,3.017758,0.1880085,0.69147280,32.8272,08/26.0/2025,2000,g 18.5,4.0
# From MPC185667
500P/PANSTARRS,e,2.3015,111.5275,46.6931,3.415827,0.1561206,0.37589056,22.9566,08/26.0/2025,2000,g 16.0,4.0
# From MPC182882
501P/Rankin,e,10.0471,139.7813,53.6898,2.227979,0.2963722,0.69848297,147.7989,08/26.0/2025,2000,g 21.5,4.0
# From MPEC 2025-PD8
502P/NEAT,e,11.3996,264.4848,37.7369,7.996814,0.0435841,0.47110202,0.9129,08/26.0/2025,2000,g  8.5,4.0
# From MPC185667
503P/PANSTARRS,e,10.5749,268.5819,17.9487,3.657987,0.1408772,0.48131207,349.9187,08/26.0/2025,2000,g 15.0,4.0
# From MPEC 2025-OF9
504P/WISE-PANSTARRS,e,8.8067,221.1201,308.5268,3.744396,0.1360290,0.40602483,18.9030,08/26.0/2025,2000,g 14.3,4.0
# From MPC184407
505P/Palomar,e,11.3882,111.9426,143.9631,4.112468,0.1181817,0.31061714,342.8984,08/26.0/2025,2000,g 14.9,4.0
# From MPEC 2025-OF9
506P/WISE-LINEAR,e,13.6524,325.6515,354.4965,5.583354,0.0747070,0.48270103,54.5599,08/26.0/2025,2000,g 12.7,4.0
# From MPC184407
507P/Lemmon,e,17.1001,233.1882,107.7771,6.218259,0.0635625,0.56876234,63.4799,08/26.0/2025,2000,g 12.6,4.0
# From MPC107687
1I/`Oumuamua,h,09/09.4886/2017,122.6778,24.5997,241.6845,1.199252,0.255240,2000,23.0,2.0
# From MPEC 2023-L37
2I/Borisov,h,12/08.5548/2019,44.0527,308.1480,209.1251,3.356633,2.006548,2000,11.0,4.0
# From MPEC 2025-PD8
3I/ATLAS,h,10/29.4807/2025,175.1131,322.1574,128.0112,6.139343,1.356371,2000,11.8,4.0
